[Satellite]
VERSION=1.1
NAME=SURFSAT
NICKNAME=SURFSAT
TLE1=1 43614U 18070B   19317.05411289  .00003321  00000-0  88169-4 0  9990
TLE2=2 43614  93.0382  64.5760 0018410  96.6790 263.6560 15.38174930 65059
STATUS=0
